SHIJIAN-6 02B (SJ-6 02B)
1 29506U 06046B   26066.23143766  .00002786  00000+0  22266-3 0  9993
2 29506  97.7053  95.9855 0014126  51.1582 309.0901 15.00984271 55449
FGRST (GLAST)           
1 33053U 08029A   26065.73530054  .00004828  00000+0  18384-3 0  9997
2 33053  25.5812 195.5362 0008149 193.3644 166.6679 15.23303351980196
SDO                     
1 36395U 10005A   26066.04836604 -.00000066  00000+0  00000+0 0  9994
2 36395  34.4360  87.8880 0000223  51.9283 300.4631  1.00275599 59034
CRYOSAT 2               
1 36508U 10013A   26066.14877573  .00000270  00000+0  66185-4 0  9997
2 36508  92.0224 252.5775 0002109  88.0443 272.1006 14.51907145843274
X-SAT                   
1 37389U 11015C   26066.21584113  .00000399  00000+0  18713-3 0  9996
2 37389  98.3427  48.1484 0012878 284.5206  75.4545 14.25171937773150
GCOM-W1 (SHIZUKU)       
1 38337U 12025A   26066.11780756  .00000793  00000+0  18605-3 0  9990
2 38337  98.2054   8.2172 0001472  74.8421 296.1712 14.57093314734171
NUSTAR                  
1 38358U 12031A   26066.25001156  .00010198  00000+0  59414-3 0  9998
2 38358   6.0259  78.1499 0007477  28.2710 166.3101 15.07680698  1306
NEOSSAT                 
1 39089U 13009D   26066.04777486  .00000270  00000+0  10796-3 0  9999
2 39089  98.4139 248.5170 0010870 185.2845 174.8228 14.35783881682085
BRITE-AUSTRIA           
1 39091U 13009F   26066.02737135  .00000294  00000+0  11483-3 0  9997
2 39091  98.3952 248.0015 0010210 178.9457 181.1753 14.36494154682389
IRIS                    
1 39197U 13033A   26066.13529210  .00001775  00000+0  21043-3 0  9994
2 39197  97.9396 265.6981 0023360 294.2265  65.6509 14.85635512685229
HISAKI (SPRINT-A)       
1 39253U 13049A   26066.12442798  .00000119  00000+0  70134-4 0  9995
2 39253  29.7222  18.8980 0136692 269.3095  89.1813 13.55530391617563
CASSIOPE                
1 39265U 13055A   26066.11597419  .00040006 -55559-6  48067-3 0  9990
2 39265  80.9185 190.0358 0316569  44.7958 317.8362 15.18518301652142
STSAT-3                 
1 39422U 13066G   26066.21439358  .00004754  00000+0  36621-3 0  9991
2 39422  97.6065  37.8846 0011705  23.1613 337.0137 15.02059227668895
SWARM B                 
1 39451U 13067A   26066.18023824  .00005741  00000+0  21018-3 0  9998
2 39451  87.7493  13.2488 0003703  88.4055 271.7618 15.27828337667660
SWARM A                 
1 39452U 13067B   26066.13823939  .00012471  00000+0  23241-3 0  9997
2 39452  87.3285  94.1035 0003077  93.9531 266.2081 15.48678045690443
SWARM C                 
1 39453U 13067C   26066.13813145  .00012466  00000+0  23232-3 0  9990
2 39453  87.3283  92.6850 0003077  94.0113 266.1498 15.48677401690400
BRITE-CA1 (TORONTO)     
1 40020U 14033L   26065.91084075  .00001677  00000+0  26032-3 0  9996
2 40020  97.9562 196.8362 0077789 243.9212 115.3975 14.72452777627161
