[{"OBJECT_NAME":"SHIJIAN-6 02B (SJ-6 02B)","OBJECT_ID":"2006-046B","EPOCH":"2026-03-07T05:33:16.213824","MEAN_MOTION":15.00984271,"ECCENTRICITY":0.0014126,"INCLINATION":97.7053,"RA_OF_ASC_NODE":95.9855,"ARG_OF_PERICENTER":51.1582,"MEAN_ANOMALY":309.0901,"EPHEMERIS_TYPE":0,"CLASSIFICATION_TYPE":"U","NORAD_CAT_ID":29506,"ELEMENT_SET_NO":999,"REV_AT_EPOCH":5544,"BSTAR":0.00022266,"MEAN_MOTION_DOT":2.786e-5,"MEAN_MOTION_DDOT":0},{"OBJECT_NAME":"FGRST (GLAST)","OBJECT_ID":"2008-029A","EPOCH":"2026-03-06T17:38:49.966656","MEAN_MOTION":15.23303351,"ECCENTRICITY":0.0008149,"INCLINATION":25.5812,"RA_OF_ASC_NODE":195.5362,"ARG_OF_PERICENTER":193.3644,"MEAN_ANOMALY":166.6679,"EPHEMERIS_TYPE":0,"CLASSIFICATION_TYPE":"U","NORAD_CAT_ID":33053,"ELEMENT_SET_NO":999,"REV_AT_EPOCH":98019,"BSTAR":0.00018384,"MEAN_MOTION_DOT":4.828e-5,"MEAN_MOTION_DDOT":0},{"OBJECT_NAME":"SDO","OBJECT_ID":"2010-005A","EPOCH":"2026-03-07T01:09:38.825856","MEAN_MOTION":1.00275599,"ECCENTRICITY":2.23e-5,"INCLINATION":34.436,"RA_OF_ASC_NODE":87.888,"ARG_OF_PERICENTER":51.9283,"MEAN_ANOMALY":300.4631,"EPHEMERIS_TYPE":0,"CLASSIFICATION_TYPE":"U","NORAD_CAT_ID":36395,"ELEMENT_SET_NO":999,"REV_AT_EPOCH":5903,"BSTAR":0,"MEAN_MOTION_DOT":-6.6e-7,"MEAN_MOTION_DDOT":0},{"OBJECT_NAME":"CRYOSAT 2","OBJECT_ID":"2010-013A","EPOCH":"2026-03-07T03:34:14.223072","MEAN_MOTION":14.51907145,"ECCENTRICITY":0.0002109,"INCLINATION":92.0224,"RA_OF_ASC_NODE":252.5775,"ARG_OF_PERICENTER":88.0443,"MEAN_ANOMALY":272.1006,"EPHEMERIS_TYPE":0,"CLASSIFICATION_TYPE":"U","NORAD_CAT_ID":36508,"ELEMENT_SET_NO":999,"REV_AT_EPOCH":84327,"BSTAR":6.6185e-5,"MEAN_MOTION_DOT":2.7e-6,"MEAN_MOTION_DDOT":0},{"OBJECT_NAME":"X-SAT","OBJECT_ID":"2011-015C","EPOCH":"2026-03-07T05:10:48.673632","MEAN_MOTION":14.25171937,"ECCENTRICITY":0.0012878,"INCLINATION":98.3427,"RA_OF_ASC_NODE":48.1484,"ARG_OF_PERICENTER":284.5206,"MEAN_ANOMALY":75.4545,"EPHEMERIS_TYPE":0,"CLASSIFICATION_TYPE":"U","NORAD_CAT_ID":37389,"ELEMENT_SET_NO":999,"REV_AT_EPOCH":77315,"BSTAR":0.00018713,"MEAN_MOTION_DOT":3.99e-6,"MEAN_MOTION_DDOT":0},{"OBJECT_NAME":"GCOM-W1 (SHIZUKU)","OBJECT_ID":"2012-025A","EPOCH":"2026-03-07T02:49:38.573184","MEAN_MOTION":14.57093314,"ECCENTRICITY":0.0001472,"INCLINATION":98.2054,"RA_OF_ASC_NODE":8.2172,"ARG_OF_PERICENTER":74.8421,"MEAN_ANOMALY":296.1712,"EPHEMERIS_TYPE":0,"CLASSIFICATION_TYPE":"U","NORAD_CAT_ID":38337,"ELEMENT_SET_NO":999,"REV_AT_EPOCH":73417,"BSTAR":0.00018605,"MEAN_MOTION_DOT":7.93e-6,"MEAN_MOTION_DDOT":0},{"OBJECT_NAME":"NUSTAR","OBJECT_ID":"2012-031A","EPOCH":"2026-03-07T06:00:00.998784","MEAN_MOTION":15.07680698,"ECCENTRICITY":0.0007477,"INCLINATION":6.0259,"RA_OF_ASC_NODE":78.1499,"ARG_OF_PERICENTER":28.271,"MEAN_ANOMALY":166.3101,"EPHEMERIS_TYPE":0,"CLASSIFICATION_TYPE":"U","NORAD_CAT_ID":38358,"ELEMENT_SET_NO":999,"REV_AT_EPOCH":130,"BSTAR":0.00059414,"MEAN_MOTION_DOT":0.00010198,"MEAN_MOTION_DDOT":0},{"OBJECT_NAME":"NEOSSAT","OBJECT_ID":"2013-009D","EPOCH":"2026-03-07T01:08:47.747904","MEAN_MOTION":14.35783881,"ECCENTRICITY":0.001087,"INCLINATION":98.4139,"RA_OF_ASC_NODE":248.517,"ARG_OF_PERICENTER":185.2845,"MEAN_ANOMALY":174.8228,"EPHEMERIS_TYPE":0,"CLASSIFICATION_TYPE":"U","NORAD_CAT_ID":39089,"ELEMENT_SET_NO":999,"REV_AT_EPOCH":68208,"BSTAR":0.00010796,"MEAN_MOTION_DOT":2.7e-6,"MEAN_MOTION_DDOT":0},{"OBJECT_NAME":"BRITE-AUSTRIA","OBJECT_ID":"2013-009F","EPOCH":"2026-03-07T00:39:24.884640","MEAN_MOTION":14.36494154,"ECCENTRICITY":0.001021,"INCLINATION":98.3952,"RA_OF_ASC_NODE":248.0015,"ARG_OF_PERICENTER":178.9457,"MEAN_ANOMALY":181.1753,"EPHEMERIS_TYPE":0,"CLASSIFICATION_TYPE":"U","NORAD_CAT_ID":39091,"ELEMENT_SET_NO":999,"REV_AT_EPOCH":68238,"BSTAR":0.00011483,"MEAN_MOTION_DOT":2.94e-6,"MEAN_MOTION_DDOT":0},{"OBJECT_NAME":"IRIS","OBJECT_ID":"2013-033A","EPOCH":"2026-03-07T03:14:49.237440","MEAN_MOTION":14.85635512,"ECCENTRICITY":0.002336,"INCLINATION":97.9396,"RA_OF_ASC_NODE":265.6981,"ARG_OF_PERICENTER":294.2265,"MEAN_ANOMALY":65.6509,"EPHEMERIS_TYPE":0,"CLASSIFICATION_TYPE":"U","NORAD_CAT_ID":39197,"ELEMENT_SET_NO":999,"REV_AT_EPOCH":68522,"BSTAR":0.00021043,"MEAN_MOTION_DOT":1.775e-5,"MEAN_MOTION_DDOT":0},{"OBJECT_NAME":"HISAKI (SPRINT-A)","OBJECT_ID":"2013-049A","EPOCH":"2026-03-07T02:59:10.577472","MEAN_MOTION":13.55530391,"ECCENTRICITY":0.0136692,"INCLINATION":29.7222,"RA_OF_ASC_NODE":18.898,"ARG_OF_PERICENTER":269.3095,"MEAN_ANOMALY":89.1813,"EPHEMERIS_TYPE":0,"CLASSIFICATION_TYPE":"U","NORAD_CAT_ID":39253,"ELEMENT_SET_NO":999,"REV_AT_EPOCH":61756,"BSTAR":7.0134e-5,"MEAN_MOTION_DOT":1.19e-6,"MEAN_MOTION_DDOT":0},{"OBJECT_NAME":"CASSIOPE","OBJECT_ID":"2013-055A","EPOCH":"2026-03-07T02:47:00.170016","MEAN_MOTION":15.18518301,"ECCENTRICITY":0.0316569,"INCLINATION":80.9185,"RA_OF_ASC_NODE":190.0358,"ARG_OF_PERICENTER":44.7958,"MEAN_ANOMALY":317.8362,"EPHEMERIS_TYPE":0,"CLASSIFICATION_TYPE":"U","NORAD_CAT_ID":39265,"ELEMENT_SET_NO":999,"REV_AT_EPOCH":65214,"BSTAR":0.00048067,"MEAN_MOTION_DOT":0.00040006,"MEAN_MOTION_DDOT":-5.5559e-7},{"OBJECT_NAME":"STSAT-3","OBJECT_ID":"2013-066G","EPOCH":"2026-03-07T05:08:43.605312","MEAN_MOTION":15.02059227,"ECCENTRICITY":0.0011705,"INCLINATION":97.6065,"RA_OF_ASC_NODE":37.8846,"ARG_OF_PERICENTER":23.1613,"MEAN_ANOMALY":337.0137,"EPHEMERIS_TYPE":0,"CLASSIFICATION_TYPE":"U","NORAD_CAT_ID":39422,"ELEMENT_SET_NO":999,"REV_AT_EPOCH":66889,"BSTAR":0.00036621,"MEAN_MOTION_DOT":4.754e-5,"MEAN_MOTION_DDOT":0},{"OBJECT_NAME":"SWARM B","OBJECT_ID":"2013-067A","EPOCH":"2026-03-07T04:19:32.583936","MEAN_MOTION":15.27828337,"ECCENTRICITY":0.0003703,"INCLINATION":87.7493,"RA_OF_ASC_NODE":13.2488,"ARG_OF_PERICENTER":88.4055,"MEAN_ANOMALY":271.7618,"EPHEMERIS_TYPE":0,"CLASSIFICATION_TYPE":"U","NORAD_CAT_ID":39451,"ELEMENT_SET_NO":999,"REV_AT_EPOCH":66766,"BSTAR":0.00021018,"MEAN_MOTION_DOT":5.741e-5,"MEAN_MOTION_DDOT":0},{"OBJECT_NAME":"SWARM A","OBJECT_ID":"2013-067B","EPOCH":"2026-03-07T03:19:03.883296","MEAN_MOTION":15.48678045,"ECCENTRICITY":0.0003077,"INCLINATION":87.3285,"RA_OF_ASC_NODE":94.1035,"ARG_OF_PERICENTER":93.9531,"MEAN_ANOMALY":266.2081,"EPHEMERIS_TYPE":0,"CLASSIFICATION_TYPE":"U","NORAD_CAT_ID":39452,"ELEMENT_SET_NO":999,"REV_AT_EPOCH":69044,"BSTAR":0.00023241,"MEAN_MOTION_DOT":0.00012471,"MEAN_MOTION_DDOT":0},{"OBJECT_NAME":"SWARM C","OBJECT_ID":"2013-067C","EPOCH":"2026-03-07T03:18:54.557280","MEAN_MOTION":15.48677401,"ECCENTRICITY":0.0003077,"INCLINATION":87.3283,"RA_OF_ASC_NODE":92.685,"ARG_OF_PERICENTER":94.0113,"MEAN_ANOMALY":266.1498,"EPHEMERIS_TYPE":0,"CLASSIFICATION_TYPE":"U","NORAD_CAT_ID":39453,"ELEMENT_SET_NO":999,"REV_AT_EPOCH":69040,"BSTAR":0.00023232,"MEAN_MOTION_DOT":0.00012466,"MEAN_MOTION_DDOT":0},{"OBJECT_NAME":"BRITE-CA1 (TORONTO)","OBJECT_ID":"2014-033L","EPOCH":"2026-03-06T21:51:36.640800","MEAN_MOTION":14.72452777,"ECCENTRICITY":0.0077789,"INCLINATION":97.9562,"RA_OF_ASC_NODE":196.8362,"ARG_OF_PERICENTER":243.9212,"MEAN_ANOMALY":115.3975,"EPHEMERIS_TYPE":0,"CLASSIFICATION_TYPE":"U","NORAD_CAT_ID":40020,"ELEMENT_SET_NO":999,"REV_AT_EPOCH":62716,"BSTAR":0.00026032,"MEAN_MOTION_DOT":1.677e-5,"MEAN_MOTION_DDOT":0}]
